C/2021 P4 (ATLAS),e,56.3613,348.0224,175.8006,295.0630,0.0001945,0.99634411,0.0000,07/30.3938/2022,2000,g  9.5,4.0
# From MPEC 2023-E68
P/2021 PE20 (ATLAS),e,19.9993,99.6234,210.4457,3.745981,0.1359426,0.66986669,185.7365,03/03.0/2025,2000,g 17.0,4.0
# From MPEC 2023-FK0
C/2021 Q3 (ATLAS),e,77.7197,307.9105,114.1391,75.26998,0.0015093,0.93081089,1.7082,03/03.0/2025,2000,g  8.0,4.0
# From MPEC 2025-A40
C/2021 Q4 (Fuls),h,06/11.4079/2023,71.5187,183.3272,147.0731,1.002198,7.565663,2000,6.0,4.0
# From MPEC 2022-C56
P/2021 Q5 (ATLAS),e,10.7393,239.7566,180.9529,3.286901,0.1653957,0.62462374,211.6575,03/03.0/2025,2000,g 15.0,4.0
# From MPEC 2024-UA9
C/2021 Q6 (PANSTARRS),h,03/25.2297/2024,161.8270,133.5731,141.0645,1.002642,8.707797,2000,6.0,4.0
# From MPEC 2023-FK0
C/2021 QM45 (PANSTARRS),e,22.8032,354.5973,72.9053,406.8580,0.0001201,0.99317411,0.0000,08/13.7078/2022,2000,g 11.0,4.0
# From MPEC 2022-X67
P/2021 R1 (PANSTARRS),e,5.5292,143.1418,220.0981,8.264095,0.0414869,0.40893417,48.9024,03/03.0/2025,2000,g 11.0,4.0
# From MPEC 2022-X67
C/2021 R2 (PANSTARRS),e,134.4831,16.3290,32.5462,8733,0.0000012,0.99916215,0.0000,12/28.3804/2021,2000,g  7.5,4.0
# From MPEC 2021-W31
P/2021 R3 (PANSTARRS),e,19.9386,304.1929,2.6114,3.769853,0.1346534,0.33130091,185.5823,03/03.0/2025,2000,g 16.0,4.0
# From MPEC 2021-W31
P/2021 R4 (Wierzchos),e,21.0142,321.2850,56.7685,5.627393,0.0738318,0.58541833,91.2830,03/03.0/2025,2000,g 16.0,4.0
# From MPEC 2024-JU4
P/2021 R5 (Rankin),e,7.8541,219.9590,167.6031,4.797655,0.0937909,0.30608692,107.4290,03/03.0/2025,2000,g 12.0,4.0
# From MPEC 2021-W31
P/2021 R6 (Groeller),e,34.8974,176.1620,220.8695,6.288507,0.0625004,0.59315275,76.1212,03/03.0/2025,2000,g 14.5,4.0
# From MPEC 2022-X67
C/2021 R7 (PANSTARRS),e,158.8725,170.1931,140.3818,965.7788,0.0000328,0.99414525,0.0000,04/17.1504/2021,2000,g 10.5,4.0
# From MPEC 2021-Y10
P/2021 R8 (Sheppard),e,2.2028,167.0689,190.8305,3.019970,0.1878020,0.29263923,233.4656,03/03.0/2025,2000,g 18.5,4.0
# From MPEC 2023-J29
C/2021 S1 (ATLAS),h,03/01.9242/2022,52.0402,299.8588,148.2910,1.002878,6.123815,2000,7.0,4.0
# From MPEC 2025-D44
C/2021 S3 (PANSTARRS),h,02/14.6824/2024,58.5356,215.6137,6.8395,1.000061,1.319909,2000,5.5,4.0
# From MPEC 2025-DP4
C/2021 S4 (Tsuchinshan),e,17.4787,5.4609,73.0176,158.1822,0.0004954,0.95770078,0.2102,03/03.0/2025,2000,g  6.5,4.0
# From MPEC 2022-OB6
C/2021 T1 (Lemmon),e,140.3572,56.8462,51.5827,2631,0.0000073,0.99883678,0.0000,10/14.7425/2021,2000,g 12.5,4.0
# From MPEC 2023-A50
C/2021 T2 (Fuls),h,06/08.2735/2022,117.5224,223.2183,263.5449,1.000546,1.244804,2000,12.0,4.0
# From MPEC 2025-DP4
C/2021 T4 (Lemmon),e,160.7784,257.8919,329.7857,6895,0.0000017,0.99978509,0.0000,07/31.5399/2023,2000,g  7.5,4.0
# From MPEC 2022-ED3
P/2021 U1 (Wierzchos),e,30.5518,246.7899,145.2270,8.539118,0.0394989,0.71276601,49.3376,03/03.0/2025,2000,g 14.5,4.0
# From MPEC 2022-L66
P/2021 U3 (Attard-Maury),e,69.9640,75.0921,335.3172,4.196622,0.1146448,0.54951020,140.4521,03/03.0/2025,2000,g 15.5,4.0
# From MPEC 2021-W31
C/2021 U4 (Leonard),e,152.8867,241.8074,237.3331,45.45973,0.0032156,0.96066766,3.7512,03/03.0/2025,2000,g 17.0,4.0
# From MPEC 2022-WQ9
C/2021 U5 (Catalina),e,39.0409,182.6931,321.4454,220.9821,0.0003000,0.98932423,0.0000,01/26.9089/2022,2000,g 13.0,4.0
# From MPEC 2022-CN4
C/2021 V1 (Rankin),e,71.4416,207.6897,195.2095,714.5223,0.0000516,0.99577545,0.0000,04/30.6349/2022,2000,g 13.0,4.0
# From MPEC 2024-JU4
P/2021 V2 (Fuls),e,12.6939,232.2763,259.8887,9.086983,0.0359811,0.61516654,27.7460,03/03.0/2025,2000,g 10.0,4.0
# From MPEC 2024-TD8
C/2021 X1 (Maury-Attard),h,05/27.2449/2023,140.1051,10.6076,334.6049,1.000506,3.234450,2000,7.0,4.0
# From MPEC 2024-E08
C/2021 X2 (Bok),h,07/08.3034/2022,137.1570,228.8349,193.3722,1.001404,2.997749,2000,13.0,4.0
# From MPEC 2024-GJ3
C/2021 Y1 (ATLAS),h,04/30.8826/2023,77.1924,244.7669,245.8460,1.001506,2.032513,2000,7.0,4.0
# From MPEC 2022-YN2
C/2022 A1 (Sarneczky),e,116.5682,285.4945,201.2732,366.0764,0.0001407,0.99656974,0.0000,01/31.0865/2022,2000,g 18.0,4.0
# From MPEC 2024-P23
C/2022 A2 (PANSTARRS),h,02/18.1764/2023,108.1589,171.5974,88.3678,1.000071,1.735528,2000,9.5,4.0
# From MPEC 2024-UQ8
C/2022 A3 (Lemmon-ATLAS),e,88.3468,325.4610,234.8637,874.1778,0.0000381,0.99576272,0.0000,09/28.9175/2023,2000,g  8.0,4.0
# From MPEC 2022-K19
P/2022 B1 (Wierzchos),e,10.9934,325.3918,148.9195,5.468663,0.0770695,0.65360764,84.8603,03/03.0/2025,2000,g 16.5,4.0
# From MPEC 2022-YB4
A/2022 B3,e,132.0511,286.1777,150.7057,638.6991,0.0000611,0.99420234,0.0000,01/16.8030/2022,2000,g 16.5,2.0
# From MPEC 2022-GA9
C/2022 B4 (Bok),e,20.0545,340.5361,153.0007,399.9812,0.0001232,0.99655990,0.0000,01/30.3498/2022,2000,g 21.0,4.0
# From MPEC 2023-J29
P/2022 BV9 (Lemmon),e,11.9248,337.3097,16.3259,4.365257,0.1080661,0.23368173,172.0696,03/03.0/2025,2000,g  9.5,4.0
# From MPEC 2023-J29
P/2022 C1 (PANSTARRS),e,4.7629,113.1019,9.4338,7.232591,0.0506714,0.44908162,61.5001,03/03.0/2025,2000,g 12.0,4.0
# From MPEC 2023-VM5
P/2022 C2 (PANSTARRS),e,9.9848,135.2632,89.1483,6.033439,0.0665054,0.44189979,62.5250,03/03.0/2025,2000,g 12.5,4.0
# From MPEC 2023-UR6
P/2022 C3 (PANSTARRS),e,12.8243,139.0404,93.8150,9.616111,0.0330525,0.54544456,32.2857,03/03.0/2025,2000,g 11.5,4.0
# From MPEC 2022-K19
P/2022 D1 (PANSTARRS),e,44.0708,47.9525,88.6552,7.405048,0.0489116,0.54791472,62.7223,03/03.0/2025,2000,g 12.5,4.0
# From MPEC 2022-K19
C/2022 D2 (Kowalski),e,22.6770,312.3705,177.8391,391.7444,0.0001271,0.99603678,0.0000,03/27.9656/2022,2000,g 17.0,4.0
# From MPEC 2022-L66
P/2022 E1 (Christensen),e,19.0070,113.3438,114.9207,3.778081,0.1342138,0.22058168,133.8769,03/03.0/2025,2000,g 13.5,4.0
# From MPEC 2025-DP4
C/2022 E2 (ATLAS),h,09/14.1401/2024,137.1406,125.3946,41.7431,1.000582,3.666346,2000,5.0,4.0
# From MPEC 2024-GJ3
C/2022 E3 (ZTF),e,109.1734,302.5165,145.8180,145925,0.0000000,0.99999237,0.0000,01/12.5757/2023,2000,g  7.5,4.0
# From MPEC 2024-PC5
C/2022 F1 (ATLAS),e,58.0033,350.6348,278.3149,5260,0.0000026,0.99886383,0.0000,08/05.4309/2022,2000,g  7.0,4.0
# From MPEC 2022-QD9
C/2022 F2 (NEOWISE),e,97.3125,58.7839,200.6011,23.80795,0.0084844,0.93323998,9.1331,03/03.0/2025,2000,g 14.5,4.0
# From MPEC 2024-JU4
C/2022 H1 (PANSTARRS),e,49.8597,6.3334,246.2928,852.8812,0.0000396,0.99098421,0.0000,01/18.7233/2024,2000,g  6.0,4.0
# From MPEC 2022-VC5
C/2022 J1 (Maury-Attard),e,105.9591,280.7994,305.6267,47.53809,0.0030071,0.96631958,3.3310,03/03.0/2025,2000,g 14.9,4.0
# From MPEC 2023-M14
C/2022 J2 (Bok),e,149.1401,252.6670,133.1196,89.91204,0.0011561,0.97967506,0.0000,10/26.7551/2022,2000,g  9.0,4.0
# From MPEC 2024-YC7
C/2022 JK5 (PANSTARRS),e,16.8262,59.6513,247.3783,44.02998,0.0033735,0.93879898,2.2734,03/03.0/2025,2000,g 11.0,4.0
# From MPEC 2022-ST7
C/2022 K1 (Leonard),h,12/16.7359/2021,41.9726,136.3545,142.5703,1.001058,3.987023,2000,11.0,4.0
# From MPEC 2023-CD7
C/2022 L1 (Catalina),e,123.4380,300.0316,59.8106,443.5877,0.0001055,0.99641351,0.0000,09/27.9045/2022,2000,g 15.8,4.0
# From MPEC 2025-DP4
C/2022 L2 (ATLAS),h,03/12.2118/2024,129.3134,39.2404,199.9118,1.000995,2.692927,2000,6.5,4.0
# From MPEC 2024-DC6
P/2022 L3 (ATLAS),e,21.5394,29.8191,10.4067,6.506008,0.0593926,0.62754499,50.7843,03/03.0/2025,2000,g 16.5,4.0
# From MPEC 2022-N37
C/2022 L4 (PANSTARRS),e,141.2453,66.0659,125.2737,284.0115,0.0002059,0.98940199,0.0000,12/09.0655/2021,2000,g 14.0,4.0
# From MPEC 2024-GJ3
C/2022 N1 (Attard-Maury),e,164.7273,301.8786,41.0049,36.71636,0.0044301,0.95971299,4.0097,03/03.0/2025,2000,g 16.9,4.0
# From MPEC 2025-DP4
C/2022 N2 (PANSTARRS),h,07/31.7669/2025,5.5030,319.7414,75.3903,1.003325,3.825429,2000,6.0,4.0
# From MPEC 2024-A43
C/2022 O1 (ATLAS),h,02/15.5664/2022,71.0466,49.9136,268.9426,1.001665,7.434528,2000,6.0,4.0
# From MPEC 2023-HD1
P/2022 O2 (PANSTARRS),e,9.4195,330.4922,48.6639,6.305752,0.0622442,0.72105859,48.9337,03/03.0/2025,2000,g 16.2,4.0
# From MPEC 2023-N01
C/2022 P1 (NEOWISE),e,154.5922,205.0738,249.8949,18.47900,0.0124076,0.91379295,10.2402,03/03.0/2025,2000,g 13.0,4.0
# From MPEC 2023-XP6
P/2022 P2 (ZTF),e,12.4406,291.1775,137.7563,4.491136,0.1035547,0.55808907,100.0276,03/03.0/2025,2000,g 12.5,4.0
# From MPEC 2023-HD1
C/2022 P3 (ZTF),e,59.5177,72.2154,0.2052,261.5563,0.0002330,0.99019178,0.0000,07/27.5307/2022,2000,g  9.0,4.0
# From MPEC 2023-R20
C/2022 Q2 (ATLAS),e,151.4645,352.9603,44.0443,32.82463,0.0052409,0.94996771,3.9898,03/03.0/2025,2000,g 13.0,4.0
# From MPEC 2025-DP4
C/2022 QE78 (ATLAS),h,09/11.0950/2025,36.5883,119.9005,0.5214,1.004074,5.476545,2000,5.0,4.0
# From MPEC 2024-M41
P/2022 R1 (PANSTARRS),e,7.3747,175.7078,221.8427,7.157282,0.0514733,0.50160939,26.5121,03/03.0/2025,2000,g 11.5,4.0
# From MPEC 2022-Y15
C/2022 R2 (ATLAS),e,52.9009,60.4039,78.3188,434.2344,0.0001089,0.99854800,0.0000,10/25.4830/2022,2000,g 17.0,4.0
# From MPEC 2025-DP4
C/2022 R3 (Leonard),h,03/05.8786/2023,43.0749,8.2557,72.9253,1.001538,5.131369,2000,9.0,4.0
# From MPEC 2022-X67
P/2022 R4 (PANSTARRS),e,21.0116,176.6349,197.4951,3.838343,0.1310655,0.48957997,126.7345,03/03.0/2025,2000,g 16.5,4.0
# From MPEC 2022-WQ9
P/2022 R5 (PANSTARRS),e,15.2924,115.0441,240.5562,3.069643,0.1832620,0.19482541,185.3384,03/03.0/2025,2000,g 16.0,4.0
# From MPEC 2025-DP4
C/2022 R6 (PANSTARRS),h,08/25.9942/2025,57.0186,150.7864,319.8976,1.004988,6.565715,2000,5.0,4.0
# From MPEC 2023-HD1
P/2022 S1 (PANSTARRS),e,34.5685,136.0910,262.8419,6.409162,0.0607438,0.50774720,56.3002,03/03.0/2025,2000,g 15.1,4.0
# From MPEC 2022-VC5
C/2022 S3 (PANSTARRS),h,01/21.6673/2023,78.4937,157.2656,267.9791,1.000395,0.838521,2000,17.0,4.0
# From MPEC 2024-PC5
C/2022 S4 (Lemmon),e,101.2184,220.1771,268.5614,1384,0.0000192,0.99800380,0.0000,07/18.7754/2024,2000,g  8.0,4.0
# From MPEC 2023-HD1
C/2022 S5 (PANSTARRS),e,136.5183,214.8644,232.8067,20.51752,0.0106051,0.89382344,8.7627,03/03.0/2025,2000,g 16.3,4.0
# From MPEC 2024-O39
C/2022 T1 (Lemmon),h,02/17.4275/2024,22.5432,236.9175,324.2930,1.000270,3.444466,2000,9.0,4.0
# From MPEC 2024-YC7
